GLOBALSTAR M001         
1 25162U 98008A   24202.76693280 -.00000047  00000+0  37823-3 0  9999
2 25162  52.0004 217.8345 0001721 268.8621 262.6699 12.38188841202652
GLOBALSTAR M004         
1 25163U 98008B   24202.76375581 -.00000063  00000+0  22443-3 0  9991
2 25163  52.0022 345.2247 0002196 270.6615 237.8546 12.63365490219794
GLOBALSTAR M002         
1 25164U 98008C   24202.67134469 -.00000116  00000+0 -78270-3 0  9999
2 25164  52.0040 351.4213 0000677 234.5905 125.4852 11.61502347145544
GLOBALSTAR M003         
1 25165U 98008D   24202.75910486  .00000023  00000+0  12043-2 0  9990
2 25165  51.9919   6.4398 0007677 351.6811  22.0133 12.12019985193032
GLOBALSTAR M014         
1 25306U 98023A   24202.92819319 -.00000076  00000+0  32370-4 0  9992
2 25306  51.9838 280.9684 0001286 124.8131  46.3028 11.65469233152546
GLOBALSTAR M006         
1 25307U 98023B   24202.81593632 -.00000057  00000+0  37374-3 0  9995
2 25307  51.9966 321.3400 0003702 217.4601 262.8166 11.58163377178437
GLOBALSTAR M015         
1 25308U 98023C   24202.91323161 -.00000138  00000+0 -14800-2 0  9994
2 25308  51.9836  44.3826 0012107 204.4590 247.8286 11.48849568156007
GLOBALSTAR M008         
1 25309U 98023D   24202.92310303 -.00000105  00000+0 -67771-4 0  9991
2 25309  51.9977  78.4560 0002053 183.4711 189.9097 12.36045520196887
